NORAD_CAT_ID,OBJECT_NAME,OBJECT_TYPE,EPOCH,MEAN_MOTION,ECCENTRICITY,INCLINATION,RA_OF_ASC_NODE,ARG_OF_PERICENTER,MEAN_ANOMALY,BSTAR,MEAN_MOTION_DOT,MEAN_MOTION_DDOT,TLE_LINE0,TLE_LINE1,TLE_LINE2,SEMIMAJOR_AXIS,PERIOD,APOGEE,PERIGEE,DECAYED
51869.0,STARLINK-3588,PAYLOAD,2022-06-08 14:00:01,15.08838903,0.000174,53.2199,39.7568,55.3068,351.985,0.00036066,5.456e-05,0.0,0 STARLINK-3588,1 51869U 22022T   22159.58334491  .00005456  00000-0  36066-3 0  9997,2 51869  53.2199  39.7568 0001740  55.3068 351.9850 15.08838903  1307,6917.884,95.438,540.952,538.545,0.0
51869.0,STARLINK-3588,PAYLOAD,2022-06-08 22:00:01,15.08834623,0.0001959,53.22,38.2623,53.3948,5.5549,-0.0010356,-0.0001673,0.0,0 STARLINK-3588,1 51869U 22022T   22159.91668981 -.00016730  00000-0 -10356-2 0  9990,2 51869  53.2200  38.2623 0001959  53.3948   5.5549 15.08834623  1305,6917.897,95.438,541.117,538.4069999999998,0.0
51869.0,STARLINK-3588,PAYLOAD,2022-06-09 14:00:01,15.08831876,0.0001817,53.2198,35.2682,57.9356,24.1224,9.9404e-05,1.294e-05,0.0,0 STARLINK-3588,1 51869U 22022T   22160.58334491  .00001294  00000-0  99404-4 0  9991,2 51869  53.2198  35.2682 0001817  57.9356  24.1224 15.08831876  1303,6917.905,95.438,541.0269999999998,538.513,0.0
51869.0,STARLINK-3588,PAYLOAD,2022-06-09 22:00:00,15.08822612,0.0001925,53.2198,33.7738,52.8979,40.7492,-0.00080393,-0.00013054,0.0,0 STARLINK-3588,1 51869U 22022T   22160.91667824 -.00013054  00000-0 -80393-3 0  9992,2 51869  53.2198  33.7738 0001925  52.8979  40.7492 15.08822612  1302,6917.934,95.439,541.13,538.467,0.0
51869.0,STARLINK-3588,PAYLOAD,2022-06-10 00:00:00,15.08807279,0.0001954,53.22,33.4001,51.5076,135.0358,0.0013605,0.00021411,0.0,0 STARLINK-3588,1 51869U 22022T   22161.00001157  .00021411  00000-0  13605-2 0  9999,2 51869  53.2200  33.4001 0001954  51.5076 135.0358 15.08807279 16488,6917.98,95.44,541.197,538.494,0.0
51869.0,STARLINK-3588,PAYLOAD,2022-06-10 14:00:01,15.08816952,0.0001834,53.2199,30.7792,57.9778,58.8205,0.0024775,0.00039337,0.0,0 STARLINK-3588,1 51869U 22022T   22161.58334491  .00039337  00000-0  24775-2 0  9998,2 51869  53.2199  30.7792 0001834  57.9778  58.8205 15.08816952  1304,6917.951,95.439,541.085,538.547,0.0
51869.0,STARLINK-3588,PAYLOAD,2022-06-10 22:00:00,15.08841194,0.0002003,53.2199,29.2848,53.5406,74.8438,-0.00036003,-6.014e-05,0.0,0 STARLINK-3588,1 51869U 22022T   22161.91667824 -.00006014  00000-0 -36003-3 0  9990,2 51869  53.2199  29.2848 0002003  53.5406  74.8438 15.08841194  1300,6917.877,95.437,541.127,538.356,0.0
51869.0,STARLINK-3588,PAYLOAD,2022-06-11 06:00:00,15.08861904,0.0001964,53.2198,27.788,52.1701,87.8047,-0.0013206,-0.00021257,0.0,0 STARLINK-3588,1 51869U 22022T   22162.25001157 -.00021257  00000-0 -13206-2 0  9994,2 51869  53.2198  27.7880 0001964  52.1701  87.8047 15.08861904 16673,6917.813,95.436,541.0369999999998,538.32,0.0
51869.0,STARLINK-3588,PAYLOAD,2022-06-11 22:00:00,15.08829325,0.0001969,53.2202,24.7961,51.5468,111.6498,0.00013455,1.853e-05,0.0,0 STARLINK-3588,1 51869U 22022T   22162.91667824  .00001853  00000-0  13455-3 0  9991,2 51869  53.2202  24.7961 0001969  51.5468 111.6498 15.08829325  1305,6917.913000000001,95.438,541.14,538.4159999999998,0.0
51869.0,STARLINK-3588,PAYLOAD,2022-06-12 06:00:02,15.08853221,0.0001915,53.2201,23.2991,51.1511,123.6851,-0.0015148,-0.00024324,0.0,0 STARLINK-3588,1 51869U 22022T   22163.25002315 -.00024324  00000-0 -15148-2 0  9997,2 51869  53.2201  23.2991 0001915  51.1511 123.6851 15.08853221 16828,6917.84,95.437,541.03,538.38,0.0
51869.0,STARLINK-3588,PAYLOAD,2022-06-12 14:00:01,15.08848879,0.0001813,53.2205,21.8018,56.9963,129.3744,-0.00083668,-0.00013583,0.0,0 STARLINK-3588,1 51869U 22022T   22163.58334491 -.00013583  00000-0 -83668-3 0  9994,2 51869  53.2205  21.8018 0001813  56.9963 129.3744 15.08848879  1301,6917.853,95.437,540.972,538.464,0.0
51869.0,STARLINK-3588,PAYLOAD,2022-06-12 22:00:00,15.08821274,0.0001938,53.2205,20.3074,50.0479,147.9257,0.00051721,7.949e-05,0.0,0 STARLINK-3588,1 51869U 22022T   22163.91667824  .00007949  00000-0  51721-3 0  9992,2 51869  53.2205  20.3074 0001938  50.0479 147.9257 15.08821274  1307,6917.938,95.439,541.143,538.462,0.0
51869.0,STARLINK-3588,PAYLOAD,2022-06-13 06:00:02,15.08855764,0.000185,53.2203,18.8102,50.5971,159.0184,-0.0014849,-0.00023853,0.0,0 STARLINK-3588,1 51869U 22022T   22164.25002315 -.00023853  00000-0 -14849-2 0  9991,2 51869  53.2203  18.8102 0001850  50.5971 159.0184 15.08855764 16977,6917.831999999999,95.437,540.977,538.4169999999998,0.0
51869.0,STARLINK-3588,PAYLOAD,2022-06-13 14:00:01,15.08845981,0.0001764999999999,53.2206,17.313,56.6379,164.5135,0.0014276,0.00022509,0.0,0 STARLINK-3588,1 51869U 22022T   22164.58334491  .00022509  00000-0  14276-2 0  9999,2 51869  53.2206  17.3130 0001765  56.6379 164.5135 15.08845981  1307,6917.861999999999,95.437,540.948,538.506,0.0
51869.0,STARLINK-3588,PAYLOAD,2022-06-13 22:00:00,15.088482199999998,0.0001895,53.2205,15.8185,49.5143,183.2578,-0.0009213,-0.00014924,0.0,0 STARLINK-3588,1 51869U 22022T   22164.91667824 -.00014924  00000-0 -92130-3 0  9995,2 51869  53.2205  15.8185 0001895  49.5143 183.2578 15.08848220 17072,6917.855,95.437,541.031,538.409,0.0
51869.0,STARLINK-3588,PAYLOAD,2022-06-14 14:00:01,15.08822875,0.0001769,53.2205,12.8241,58.2832,197.6685,0.0015453,0.0002438,0.0,0 STARLINK-3588,1 51869U 22022T   22165.58334491  .00024380  00000-0  15453-2 0  9997,2 51869  53.2205  12.8241 0001769  58.2832 197.6685 15.08822875  1309,6917.933000000001,95.439,541.0219999999998,538.5740000000002,0.0
51869.0,STARLINK-3588,PAYLOAD,2022-06-14 22:00:00,15.08825855,0.0001914,53.2204,11.3295,51.6531,215.883,0.00080877,0.00012602,0.0,0 STARLINK-3588,1 51869U 22022T   22165.91667824  .00012602  00000-0  80877-3 0  9990,2 51869  53.2204  11.3295 0001914  51.6531 215.8830 15.08825855  1302,6917.924,95.438,541.113,538.465,0.0
51869.0,STARLINK-3588,PAYLOAD,2022-06-15 06:00:00,15.08847869,0.0001746,53.22,9.832,52.0162,227.1029,-0.0034643,-0.00055014,0.0,0 STARLINK-3588,1 51869U 22022T   22166.25001157 -.00055014  00000-0 -34643-2 0  9994,2 51869  53.2200   9.8320 0001746  52.0162 227.1029 15.08847869 17275,6917.856,95.437,540.929,538.513,0.0
51869.0,STARLINK-3588,PAYLOAD,2022-06-15 14:00:01,15.08823978,0.0001653,53.2202,8.3352,57.7927,232.9037,0.0010829,0.00016981,0.0,0 STARLINK-3588,1 51869U 22022T   22166.58334491  .00016981  00000-0  10829-2 0  9998,2 51869  53.2202   8.3352 0001653  57.7927 232.9037 15.08823978  1309,6917.929,95.439,540.938,538.651,0.0
51869.0,STARLINK-3588,PAYLOAD,2022-06-15 22:00:00,15.08821351,0.0001827,53.22,6.8406,51.0345,251.2512,0.0018846,0.00029818,0.0,0 STARLINK-3588,1 51869U 22022T   22166.91667824  .00029818  00000-0  18846-2 0  9994,2 51869  53.2200   6.8406 0001827  51.0345 251.2512 15.08821351 17373,6917.937,95.439,541.066,538.538,0.0
51869.0,STARLINK-3588,PAYLOAD,2022-06-16 02:00:01,15.08836301,0.00018,53.2195,6.0922,49.0129,79.0645,0.0017096,0.00027022,0.0,0 STARLINK-3588,1 51869U 22022T   22167.08334491  .00027022  00000-0  17096-2 0  9995,2 51869  53.2195   6.0922 0001800  49.0129  79.0645 15.08836301  1309,6917.892,95.438,541.002,538.511,0.0
51869.0,STARLINK-3588,PAYLOAD,2022-06-19 14:00:01,15.08855282,0.0001688,53.2203,350.3799,52.9651,16.8245,-0.0017174,-0.00027528,0.0,0 STARLINK-3588,1 51869U 22022T   22170.58334491 -.00027528  00000-0 -17174-2 0  9994,2 51869  53.2203 350.3799 0001688  52.9651  16.8245 15.08855282  1307,6917.834,95.437,540.866,538.531,0.0
51869.0,STARLINK-3588,PAYLOAD,2022-06-19 22:00:00,15.08815315,0.0001808,53.2204,348.8852,45.6718,35.7238,0.0034391999999999,0.00054836,0.0,0 STARLINK-3588,1 51869U 22022T   22170.91667824  .00054836  00000-0  34392-2 0  9991,2 51869  53.2204 348.8852 0001808  45.6718  35.7238 15.08815315  1302,6917.956,95.439,541.072,538.57,0.0
51869.0,STARLINK-3588,PAYLOAD,2022-06-20 12:00:00,15.08824686,0.0001583,53.2206,346.2647,50.718,320.9523,0.0016305,0.00025746,0.0,0 STARLINK-3588,1 51869U 22022T   22171.50001157  .00025746  00000-0  16305-2 0  9990,2 51869  53.2206 346.2647 0001583  50.7180 320.9523 15.08824686 18077,6917.927,95.439,540.887,538.697,0.0
51869.0,STARLINK-3588,PAYLOAD,2022-06-20 14:00:01,15.08843547,0.0001644,53.22,345.8906,49.6038,54.9577,-0.00063289,-0.00010347,0.0,0 STARLINK-3588,1 51869U 22022T   22171.58334491 -.00010347  00000-0 -63289-3 0  9995,2 51869  53.2200 345.8906 0001644  49.6038  54.9577 15.08843547  1309,6917.87,95.437,540.872,538.597,0.0
51869.0,STARLINK-3588,PAYLOAD,2022-06-20 22:00:00,15.08815727,0.0001776,53.2206,344.3965,43.1619,72.9999,0.003632,0.00057952,0.0,0 STARLINK-3588,1 51869U 22022T   22171.91667824  .00057952  00000-0  36320-2 0  9997,2 51869  53.2206 344.3965 0001776  43.1619  72.9999 15.08815727  1301,6917.955,95.439,541.048,538.591,0.0
51869.0,STARLINK-3588,PAYLOAD,2022-06-21 06:00:00,15.08854952,0.0001635,53.2207,342.8986,48.4034,79.3534,-0.0011706,-0.00018877,0.0,0 STARLINK-3588,1 51869U 22022T   22172.25001157 -.00018877  00000-0 -11706-2 0  9992,2 51869  53.2207 342.8986 0001635  48.4034  79.3534 15.08854952 18184,6917.835,95.437,540.831,538.569,0.0
51869.0,STARLINK-3588,PAYLOAD,2022-06-21 14:00:01,15.0884657,0.0001717,53.2209,341.4027,51.5704,87.7869,-0.00089908,-0.00014571,0.0,0 STARLINK-3588,1 51869U 22022T   22172.58334491 -.00014571  00000-0 -89908-3 0  9995,2 51869  53.2209 341.4027 0001717  51.5704  87.7869 15.08846570  1304,6917.86,95.437,540.913,538.538,0.0
51869.0,STARLINK-3588,PAYLOAD,2022-06-21 22:00:00,15.0882655,0.0001823,53.2205,339.9078,44.8884,106.0672,0.00075026,0.00011668,0.0,0 STARLINK-3588,1 51869U 22022T   22172.91667824  .00011668  00000-0  75026-3 0  9999,2 51869  53.2205 339.9078 0001823  44.8884 106.0672 15.08826550  1303,6917.922,95.438,541.048,538.525,0.0
